OBJECT_NAME,OBJECT_ID,EPOCH,MEAN_MOTION,ECCENTRICITY,INCLINATION,RA_OF_ASC_NODE,ARG_OF_PERICENTER,MEAN_ANOMALY,EPHEMERIS_TYPE,CLASSIFICATION_TYPE,NORAD_CAT_ID,ELEMENT_SET_NO,REV_AT_EPOCH,BSTAR,MEAN_MOTION_DOT,MEAN_MOTION_DDOT
IRIDIUM 135,2017-083A,2026-06-16T04:11:43.175328,14.34217533,.00020565,86.3960,322.4388,91.4541,268.6890,0,U,43070,999,44400,-.3074208E-5,.11E-6,0
IRIDIUM 138,2017-083B,2026-06-15T22:06:23.145408,14.34217207,.0002215,86.3973,322.2401,87.3565,272.7884,0,U,43071,999,44395,-.16001E-4,-.25E-6,0
IRIDIUM 116,2017-083C,2026-06-16T04:02:35.113344,14.34217849,.00019528,86.3962,322.4273,98.3378,261.8039,0,U,43072,999,44402,.3955896E-5,.31E-6,0
IRIDIUM 130,2017-083D,2026-06-16T03:16:55.030656,14.34218223,.00019579,86.3970,322.7158,91.9869,268.1551,0,U,43073,999,44396,.21129494E-4,.79E-6,0
IRIDIUM 151,2017-083E,2026-06-16T04:20:51.170784,14.34217652,.0002147,86.3965,322.4797,92.6761,267.4681,0,U,43074,999,44399,-.2069875E-5,.14E-6,0
IRIDIUM 134,2017-083F,2026-06-16T03:35:11.132160,14.34217593,.00019793,86.3962,322.5012,91.2056,268.9367,0,U,43075,999,44395,-.6443829E-5,.2E-7,0
IRIDIUM 137,2017-083G,2026-06-16T03:53:27.132576,14.34217947,.00022396,86.3967,322.5885,103.8656,256.2789,0,U,43076,999,44402,.6724996E-5,.39E-6,0
IRIDIUM 141,2017-083H,2026-06-15T22:42:55.128096,14.34217929,.00022005,86.3961,322.5093,90.8914,269.2534,0,U,43077,999,44399,.3817607E-5,.3E-6,0
IRIDIUM 153,2017-083J,2026-06-16T07:36:51.435072,14.34217618,.00021461,86.3956,290.8347,89.8219,270.3223,0,U,43078,999,44515,-.950196E-6,.17E-6,0
IRIDIUM 131,2017-083K,2026-06-15T20:44:10.960800,14.34219103,.00022171,86.3968,322.7297,92.0861,268.0589,0,U,43079,999,44391,.43115215E-4,.141E-5,0
IRIDIUM 144,2018-030A,2026-06-15T20:02:43.255104,14.34218493,.00021065,86.3958,290.9653,96.4936,263.6500,0,U,43249,999,42994,.24000395E-4,.87E-6,0
IRIDIUM 149,2018-030B,2026-06-16T01:13:15.466080,14.34217175,.00021429,86.3954,290.8423,93.8779,266.2662,0,U,43250,999,42999,-.19163352E-4,-.34E-6,0
IRIDIUM 157,2018-030C,2026-06-16T06:42:03.426048,14.34217494,.00020762,86.3955,290.7999,94.2687,265.8746,0,U,43251,999,43000,-.7216596E-5,0,0
IRIDIUM 140,2018-030D,2026-06-16T07:09:27.426240,14.34217476,.00020309,86.3955,290.8046,93.6637,266.4791,0,U,43252,999,43006,-.523073E-5,.5E-7,0
IRIDIUM 145,2018-030E,2026-06-16T06:51:11.395584,14.34217526,.00019724,86.3958,290.7819,100.9821,259.1597,0,U,43253,999,42999,.5301145E-5,.35E-6,0
IRIDIUM 146,2018-030F,2026-06-16T01:22:23.347488,14.34218161,.00021153,86.3957,290.8897,96.6727,263.4709,0,U,43254,999,42997,.18537942E-4,.72E-6,0
IRIDIUM 148,2018-030G,2026-06-16T07:18:35.451936,14.34217767,.00022541,86.3960,290.8294,96.4906,263.6547,0,U,43255,999,43004,.8455259E-5,.43E-6,0
IRIDIUM 142,2018-030H,2026-06-16T06:32:55.417632,14.34217456,.00020806,86.3955,290.7315,98.6741,261.4690,0,U,43256,999,43000,.4104523E-5,.31E-6,0
IRIDIUM 150,2018-030J,2026-06-16T07:27:43.437888,14.34217568,.00021377,86.3958,290.8319,93.4372,266.7068,0,U,43257,999,43003,-.636181E-6,.18E-6,0
IRIDIUM 143,2018-030K,2026-06-16T07:00:19.416096,14.34217485,.00020787,86.3962,290.9325,96.3625,263.7808,0,U,43258,999,42996,.18707295E-4,.72E-6,0
IRIDIUM 161,2018-047C,2026-06-16T06:25:28.620768,14.43282488,.00025154,86.4482,88.8556,84.6183,275.5304,0,U,43478,999,42500,.7493402E-4,.272E-5,0
IRIDIUM 152,2018-047D,2026-06-16T04:40:34.236480,14.34218238,.00023268,86.3959,88.7473,82.9531,277.1929,0,U,43479,999,42234,.26194991E-4,.93E-6,0
IRIDIUM 147,2018-047E,2026-06-16T06:30:10.289088,14.34217603,.0002133,86.3960,88.7206,85.6074,274.5366,0,U,43480,999,42235,.5131481E-5,.34E-6,0
IRIDIUM 110,2018-047F,2026-06-16T06:39:18.360576,14.34217187,.00025736,86.3961,88.8097,82.6486,277.5003,0,U,43481,999,42234,.27734006E-4,.97E-6,0
IRIDIUM 162,2018-047G,2026-06-16T06:16:25.118112,14.43281242,.00022693,86.4481,88.7494,82.4177,277.7281,0,U,43482,999,42499,.78890639E-4,.286E-5,0
IRIDIUM 160,2018-061A,2026-06-16T05:21:18.478656,14.34218035,.00022572,86.3963,57.2006,85.3457,274.7996,0,U,43569,999,41323,.19728619E-4,.75E-6,0
IRIDIUM 166,2018-061B,2026-06-16T04:17:22.483680,14.34217728,.00021032,86.3963,57.1697,86.2993,273.8444,0,U,43570,999,41325,.6661154E-5,.38E-6,0
IRIDIUM 158,2018-061C,2026-06-16T03:31:42.458016,14.34217978,.00021838,86.3962,57.1928,82.2197,277.9246,0,U,43571,999,41321,.20388088E-4,.77E-6,0
IRIDIUM 165,2018-061D,2026-06-16T05:48:42.407136,14.34217513,.00020591,86.3964,57.1995,86.3024,273.8407,0,U,43572,999,41325,.28305888E-4,.99E-6,0
IRIDIUM 155,2018-061E,2026-06-16T04:53:54.484512,14.34217634,.00021036,86.3959,57.0844,82.4303,277.7132,0,U,43573,999,41321,.521477E-5,.34E-6,0
