IRIDIUM 135             
1 43070U 17083A   26167.17480527  .00000011  00000+0 -30742-5 0  9992
2 43070  86.3960 322.4388 0002056  91.4541 268.6890 14.34217533444009
IRIDIUM 138             
1 43071U 17083B   26166.92110122 -.00000025  00000+0 -16001-4 0  9993
2 43071  86.3973 322.2401 0002215  87.3565 272.7884 14.34217207443955
IRIDIUM 116             
1 43072U 17083C   26167.16846196  .00000031  00000+0  39559-5 0  9997
2 43072  86.3962 322.4273 0001952  98.3378 261.8039 14.34217849444026
IRIDIUM 130             
1 43073U 17083D   26167.13674804  .00000079  00000+0  21129-4 0  9995
2 43073  86.3970 322.7158 0001957  91.9869 268.1551 14.34218223443968
IRIDIUM 151             
1 43074U 17083E   26167.18114781  .00000014  00000+0 -20699-5 0  9996
2 43074  86.3965 322.4797 0002147  92.6761 267.4681 14.34217652443994
IRIDIUM 134             
1 43075U 17083F   26167.14943440  .00000002  00000+0 -64438-5 0  9991
2 43075  86.3962 322.5012 0001979  91.2056 268.9367 14.34217593443954
IRIDIUM 137             
1 43076U 17083G   26167.16211959  .00000039  00000+0  67250-5 0  9991
2 43076  86.3967 322.5885 0002239 103.8656 256.2789 14.34217947444024
IRIDIUM 141             
1 43077U 17083H   26166.94647139  .00000030  00000+0  38176-5 0  9996
2 43077  86.3961 322.5093 0002200  90.8914 269.2534 14.34217929443997
IRIDIUM 153             
1 43078U 17083J   26167.31726198  .00000017  00000+0 -95020-6 0  9990
2 43078  86.3956 290.8347 0002146  89.8219 270.3223 14.34217618445159
IRIDIUM 131             
1 43079U 17083K   26166.86401575  .00000141  00000+0  43115-4 0  9992
2 43079  86.3968 322.7297 0002217  92.0861 268.0589 14.34219103443912
IRIDIUM 144             
1 43249U 18030A   26166.83522286  .00000087  00000+0  24000-4 0  9995
2 43249  86.3958 290.9653 0002106  96.4936 263.6500 14.34218493429942
IRIDIUM 149             
1 43250U 18030B   26167.05087345 -.00000034  00000+0 -19163-4 0  9992
2 43250  86.3954 290.8423 0002142  93.8779 266.2662 14.34217175429999
IRIDIUM 157             
1 43251U 18030C   26167.27920632  .00000000  00000+0 -72166-5 0  9997
2 43251  86.3955 290.7999 0002076  94.2687 265.8746 14.34217494430003
IRIDIUM 140             
1 43252U 18030D   26167.29823410  .00000005  00000+0 -52307-5 0  9996
2 43252  86.3955 290.8046 0002030  93.6637 266.4791 14.34217476430069
IRIDIUM 145             
1 43253U 18030E   26167.28554856  .00000035  00000+0  53011-5 0  9996
2 43253  86.3958 290.7819 0001972 100.9821 259.1597 14.34217526429990
IRIDIUM 146             
1 43254U 18030F   26167.05721467  .00000072  00000+0  18538-4 0  9991
2 43254  86.3957 290.8897 0002115  96.6727 263.4709 14.34218161429970
IRIDIUM 148             
1 43255U 18030G   26167.30457699  .00000043  00000+0  84553-5 0  9992
2 43255  86.3960 290.8294 0002254  96.4906 263.6547 14.34217767430040
IRIDIUM 142             
1 43256U 18030H   26167.27286363  .00000031  00000+0  41045-5 0  9993
2 43256  86.3955 290.7315 0002080  98.6741 261.4690 14.34217456430002
IRIDIUM 150             
1 43257U 18030J   26167.31091942  .00000018  00000+0 -63618-6 0  9993
2 43257  86.3958 290.8319 0002137  93.4372 266.7068 14.34217568430031
IRIDIUM 143             
1 43258U 18030K   26167.29189139  .00000072  00000+0  18707-4 0  9993
2 43258  86.3962 290.9325 0002078  96.3625 263.7808 14.34217485429969
IRIDIUM 161             
1 43478U 18047C   26167.26769237  .00000272  00000+0  74934-4 0  9991
2 43478  86.4482  88.8556 0002515  84.6183 275.5304 14.43282488425004
IRIDIUM 152             
1 43479U 18047D   26167.19484070  .00000093  00000+0  26195-4 0  9990
2 43479  86.3959  88.7473 0002326  82.9531 277.1929 14.34218238422345
IRIDIUM 147             
1 43480U 18047E   26167.27095242  .00000034  00000+0  51315-5 0  9998
2 43480  86.3960  88.7206 0002133  85.6074 274.5366 14.34217603422353
IRIDIUM 110             
1 43481U 18047F   26167.27729584  .00000097  00000+0  27734-4 0  9998
2 43481  86.3961  88.8097 0002573  82.6486 277.5003 14.34217187422343
IRIDIUM 162             
1 43482U 18047G   26167.26140183  .00000286  00000+0  78891-4 0  9990
2 43482  86.4481  88.7494 0002269  82.4177 277.7281 14.43281242424995
IRIDIUM 160             
1 43569U 18061A   26167.22313054  .00000075  00000+0  19729-4 0  9998
2 43569  86.3963  57.2006 0002257  85.3457 274.7996 14.34218035413230
IRIDIUM 166             
1 43570U 18061B   26167.17873245  .00000038  00000+0  66612-5 0  9990
2 43570  86.3963  57.1697 0002103  86.2993 273.8444 14.34217728413250
IRIDIUM 158             
1 43571U 18061C   26167.14701919  .00000077  00000+0  20388-4 0  9998
2 43571  86.3962  57.1928 0002183  82.2197 277.9246 14.34217978413215
IRIDIUM 165             
1 43572U 18061D   26167.24215749  .00000099  00000+0  28306-4 0  9993
2 43572  86.3964  57.1995 0002059  86.3024 273.8407 14.34217513413251
IRIDIUM 155             
1 43573U 18061E   26167.20410283  .00000034  00000+0  52148-5 0  9991
2 43573  86.3959  57.0844 0002103  82.4303 277.7132 14.34217634413213
